NORAD_CAT_ID,OBJECT_NAME,OBJECT_TYPE,EPOCH,MEAN_MOTION,ECCENTRICITY,INCLINATION,RA_OF_ASC_NODE,ARG_OF_PERICENTER,MEAN_ANOMALY,BSTAR,MEAN_MOTION_DOT,MEAN_MOTION_DDOT,TLE_LINE0,TLE_LINE1,TLE_LINE2,SEMIMAJOR_AXIS,PERIOD,APOGEE,PERIGEE,DECAYED
52611.0,STARLINK-3980,PAYLOAD,2024-02-13 11:25:44,15.08838313,0.0002102,53.2176,74.4045,91.7443,268.379,-2.5734e-05,-6.98e-06,0.0,0 STARLINK-3980,1 52611U 22052P   24044.47621405 -.00000698  00000-0 -25734-4 0  9999,2 52611  53.2176  74.4045 0002102  91.7443 268.3790 15.08838313 97144,6917.886,95.438,541.205,538.296,0.0
52611.0,STARLINK-3980,PAYLOAD,2024-02-13 19:22:40,15.0883851,0.0001926,53.2187,72.912,92.938,267.1832,2.7526e-06,-2.44e-06,0.0,0 STARLINK-3980,1 52611U 22052P   24044.80741314 -.00000244  00000-0  27526-5 0  9996,2 52611  53.2187  72.9120 0001926  92.9380 267.1832 15.08838510 96826,6917.885,95.438,541.082,538.418,0.0
52611.0,STARLINK-3980,PAYLOAD,2024-02-14 11:16:30,15.08851052,0.0001865,53.2179,69.9406,92.7436,267.3769,3.1318e-06,-2.38e-06,0.0,0 STARLINK-3980,1 52611U 22052P   24045.46980312 -.00000238  00000-0  31318-5 0  9999,2 52611  53.2179  69.9406 0001865  92.7436 267.3769 15.08851052 97291,6917.847,95.437,541.002,538.421,0.0
52611.0,STARLINK-3980,PAYLOAD,2024-02-15 01:34:59,15.0883414,0.0001802,53.2175,67.2638,101.114,259.0055,0.00018214,2.611e-05,0.0,0 STARLINK-3980,1 52611U 22052P   24046.06596934  .00002611  00000-0  18214-3 0  9993,2 52611  53.2175  67.2638 0001802 101.1140 259.0055 15.08834140 97388,6917.898,95.438,541.01,538.517,0.0
52611.0,STARLINK-3980,PAYLOAD,2024-02-15 07:56:32,15.08825874,0.000185,53.2168,66.0745,103.2966,256.8233,0.00041702,6.353e-05,0.0,0 STARLINK-3980,1 52611U 22052P   24046.33092851  .00006353  00000-0  41702-3 0  9997,2 52611  53.2168  66.0745 0001850 103.2966 256.8233 15.08825874 97059,6917.924,95.438,541.068,538.509,0.0
52611.0,STARLINK-3980,PAYLOAD,2024-02-16 04:36:33,15.08836027,0.000166,53.2171,62.2095,100.3239,259.7941,1.8532e-05,7e-08,0.0,0 STARLINK-3980,1 52611U 22052P   24047.19205625  .00000007  00000-0  18532-4 0  9993,2 52611  53.2171  62.2095 0001660 100.3239 259.7941 15.08836027 97554,6917.893,95.438,540.906,538.609,0.0
52611.0,STARLINK-3980,PAYLOAD,2024-02-16 07:47:19,15.08837186,0.0001569,53.2179,61.6165,87.9763,272.1408,7.1249e-05,8.46e-06,0.0,0 STARLINK-3980,1 52611U 22052P   24047.32453507  .00000846  00000-0  71249-4 0  9997,2 52611  53.2179  61.6165 0001569  87.9763 272.1408 15.08837186 97209,6917.889,95.438,540.839,538.669,0.0
52611.0,STARLINK-3980,PAYLOAD,2024-02-17 07:38:07,15.08839551,0.0001593,53.2183,57.1603,98.4276,261.6897,5.3016e-05,5.56e-06,0.0,0 STARLINK-3980,1 52611U 22052P   24048.31813690  .00000556  00000-0  53016-4 0  9990,2 52611  53.2183  57.1603 0001593  98.4276 261.6897 15.08839551 97724,6917.882,95.438,540.849,538.645,0.0
52611.0,STARLINK-3980,PAYLOAD,2024-02-17 17:10:25,15.08840452,0.0001449,53.2175,55.3762,95.2931,264.8227,6.8031e-06,-1.8e-06,0.0,0 STARLINK-3980,1 52611U 22052P   24048.71557778 -.00000180  00000-0  68031-5 0  9994,2 52611  53.2175  55.3762 0001449  95.2931 264.8227 15.08840452 97414,6917.879,95.438,540.746,538.742,0.0
52611.0,STARLINK-3980,PAYLOAD,2024-02-18 09:04:17,15.08842563,0.0001645,53.2183,52.4035,107.4318,252.6854,0.00017868,2.557e-05,0.0,0 STARLINK-3980,1 52611U 22052P   24049.37797633  .00002557  00000-0  17868-3 0  9992,2 52611  53.2183  52.4035 0001645 107.4318 252.6854 15.08842563 97884,6917.873,95.437,540.876,538.6,0.0
52611.0,STARLINK-3980,PAYLOAD,2024-02-19 04:08:55,15.08839955,0.0001955,53.2191,48.8299,84.8671,275.2544,8.402e-05,1.049e-05,0.0,0 STARLINK-3980,1 52611U 22052P   24050.17286302  .00001049  00000-0  84020-4 0  9998,2 52611  53.2191  48.8299 0001955  84.8671 275.2544 15.08839955 98001,6917.881,95.438,541.098,538.393,0.0
52611.0,STARLINK-3980,PAYLOAD,2024-02-19 08:55:04,15.08842128,0.0001858,53.2189,47.9368,78.4069,281.7132,9.5525e-05,1.233e-05,0.0,0 STARLINK-3980,1 52611U 22052P   24050.37158057  .00001233  00000-0  95525-4 0  9992,2 52611  53.2189  47.9368 0001858  78.4069 281.7132 15.08842128 97669,6917.874,95.437,541.024,538.454,0.0
52611.0,STARLINK-3980,PAYLOAD,2024-02-19 16:52:00,15.0883513,0.0001652,53.218,46.453,84.1462,275.9718,3.218e-05,2.24e-06,0.0,0 STARLINK-3980,1 52611U 22052P   24050.70278591  .00000224  00000-0  32180-4 0  9992,2 52611  53.2180  46.4530 0001652  84.1462 275.9718 15.08835130 97714,6917.895,95.438,540.903,538.617,0.0
52611.0,STARLINK-3980,PAYLOAD,2024-02-20 07:10:28,15.0884362,0.0001564,53.2179,43.7778,84.435,275.6821,3.3453e-06,-2.35e-06,0.0,0 STARLINK-3980,1 52611U 22052P   24051.29894234 -.00000235  00000-0  33453-5 0  9993,2 52611  53.2179  43.7778 0001564  84.4350 275.6821 15.08843620 98173,6917.869,95.437,540.816,538.652,0.0
52611.0,STARLINK-3980,PAYLOAD,2024-02-20 16:42:47,15.08844616,0.0001817,53.2183,41.9943,76.9058,283.2137,7.3176e-05,8.77e-06,0.0,0 STARLINK-3980,1 52611U 22052P   24051.69638092  .00000877  00000-0  73176-4 0  9991,2 52611  53.2183  41.9943 0001817  76.9058 283.2137 15.08844616 97860,6917.866,95.437,540.988,538.474,0.0
52611.0,STARLINK-3980,PAYLOAD,2024-02-21 05:25:51,15.08850113,0.0001385,53.2183,39.6122,101.0108,259.104,8.925e-05,1.133e-05,0.0,0 STARLINK-3980,1 52611U 22052P   24052.22629473  .00001133  00000-0  89250-4 0  9990,2 52611  53.2183  39.6122 0001385 101.0108 259.1040 15.08850113 97942,6917.849,95.437,540.673,538.756,0.0
52611.0,STARLINK-3980,PAYLOAD,2024-02-21 16:33:34,15.08844388,0.0001297,53.2199,37.5296,95.3249,264.7891,9.6021e-06,-1.35e-06,0.0,0 STARLINK-3980,1 52611U 22052P   24052.68997871 -.00000135  00000-0  96021-5 0  9997,2 52611  53.2199  37.5296 0001297  95.3249 264.7891 15.08844388 98383,6917.867,95.437,540.629,538.835,0.0
52611.0,STARLINK-3980,PAYLOAD,2024-02-22 03:41:16,15.08832721,0.0001435,53.2196,35.449,91.5306,268.585,2.702e-05,1.42e-06,0.0,0 STARLINK-3980,1 52611U 22052P   24053.15366794  .00000142  00000-0  27020-4 0  9993,2 52611  53.2196  35.4490 0001435  91.5306 268.5850 15.08832721 98452,6917.903,95.438,540.76,538.775,0.0
52611.0,STARLINK-3980,PAYLOAD,2024-02-22 08:27:26,15.08839091,0.000156,53.2196,34.5563,97.5088,262.6081,2.1391e-05,5.2e-07,0.0,0 STARLINK-3980,1 52611U 22052P   24053.35238462  .00000052  00000-0  21391-4 0  9990,2 52611  53.2196  34.5563 0001560  97.5088 262.6081 15.08839091 98116,6917.883,95.438,540.827,538.669,0.0
52611.0,STARLINK-3980,PAYLOAD,2024-02-23 05:07:26,15.0884915,0.0001559,53.22,30.6901,102.0315,258.0851,3.3e-05,2.37e-06,0.0,0 STARLINK-3980,1 52611U 22052P   24054.21349700  .00000237  00000-0  33000-4 0  9999,2 52611  53.2200  30.6901 0001559 102.0315 258.0851 15.08849150 98614,6917.852,95.437,540.796,538.639,0.0
52611.0,STARLINK-3980,PAYLOAD,2024-02-23 22:36:41,15.08831648,0.0001493,53.2201,27.4215,99.8134,260.3027,8.9954e-05,1.144e-05,0.0,0 STARLINK-3980,1 52611U 22052P   24054.94214717  .00001144  00000-0  89954-4 0  9995,2 52611  53.2201  27.4215 0001493  99.8134 260.3027 15.08831648 98351,6917.906,95.438,540.804,538.738,0.0
52611.0,STARLINK-3980,PAYLOAD,2024-02-24 04:58:14,15.08830978,0.0001355,53.2196,26.2347,85.2923,274.8224,9.0149e-05,1.147e-05,0.0,0 STARLINK-3980,1 52611U 22052P   24055.20710816  .00001147  00000-0  90149-4 0  9997,2 52611  53.2196  26.2347 0001355  85.2923 274.8224 15.08830978 98768,6917.908,95.438,540.71,538.836,0.0
52611.0,STARLINK-3980,PAYLOAD,2024-02-24 14:30:32,15.0883801,0.000137,53.2192,24.45,89.3906,270.7243,3.2841e-06,-2.36e-06,0.0,0 STARLINK-3980,1 52611U 22052P   24055.60454858 -.00000236  00000-0  32841-5 0  9997,2 52611  53.2192  24.4500 0001370  89.3906 270.7243 15.08838010 98455,6917.886,95.438,540.699,538.804,0.0
52611.0,STARLINK-3980,PAYLOAD,2024-02-24 22:27:28,15.08834472,0.0001459,53.2187,22.9625,105.06,255.0554,9.5017e-05,1.224e-05,0.0,0 STARLINK-3980,1 52611U 22052P   24055.93574763  .00001224  00000-0  95017-4 0  9991,2 52611  53.2187  22.9625 0001459 105.0600 255.0554 15.08834472 98500,6917.897,95.438,540.772,538.753,0.0
52611.0,STARLINK-3980,PAYLOAD,2024-02-25 04:49:00,15.08852154,0.0001482,53.2197,21.7752,95.9128,264.2033,6.851e-05,8.03e-06,0.0,0 STARLINK-3980,1 52611U 22052P   24056.20069861  .00000803  00000-0  68510-4 0  9990,2 52611  53.2197  21.7752 0001482  95.9128 264.2033 15.08852154 98913,6917.843,95.437,540.733,538.683,0.0
52611.0,STARLINK-3980,PAYLOAD,2024-02-25 14:21:19,15.08850139,0.0001309,53.2188,19.9859,78.0028,282.1111,3.4521e-05,2.62e-06,0.0,0 STARLINK-3980,1 52611U 22052P   24056.59813754  .00000262  00000-0  34521-4 0  9994,2 52611  53.2188  19.9859 0001309  78.0028 282.1111 15.08850139 98602,6917.849,95.437,540.62,538.809,0.0
52611.0,STARLINK-3980,PAYLOAD,2024-02-26 03:04:25,15.088371,0.0001643,53.2204,17.6118,92.6251,267.493,8.9137e-05,1.131e-05,0.0,0 STARLINK-3980,1 52611U 22052P   24057.12806741  .00001131  00000-0  89137-4 0  9991,2 52611  53.2204  17.6118 0001643  92.6251 267.4930 15.08837100 99053,6917.889,95.438,540.891,538.618,0.0
52611.0,STARLINK-3980,PAYLOAD,2024-02-26 06:15:10,15.08843652,0.0001633,53.2202,17.0171,91.4128,268.7051,0.00013203,1.814e-05,0.0,0 STARLINK-3980,1 52611U 22052P   24057.26054263  .00001814  00000-0  13203-3 0  9998,2 52611  53.2202  17.0171 0001633  91.4128 268.7051 15.08843652 99072,6917.869,95.437,540.864,538.605,0.0
52611.0,STARLINK-3980,PAYLOAD,2024-02-27 02:55:12,15.08841274,0.0001522,53.2189,13.1465,107.1984,252.9175,-6.422e-05,-1.31e-05,0.0,0 STARLINK-3980,1 52611U 22052P   24058.12166958 -.00001310  00000-0 -64220-4 0  9998,2 52611  53.2189  13.1465 0001522 107.1984 252.9175 15.08841274 99206,6917.876,95.437,540.794,538.689,0.0
52611.0,STARLINK-3980,PAYLOAD,2024-02-27 14:02:54,15.08843681,0.0001463,53.2195,11.0673,90.4206,269.6954,-6.3881e-05,-1.305e-05,0.0,0 STARLINK-3980,1 52611U 22052P   24058.58534894 -.00001305  00000-0 -63881-4 0  9992,2 52611  53.2195  11.0673 0001463  90.4206 269.6954 15.08843681 98906,6917.869,95.437,540.746,538.722,0.0
